{
  "type": "FeatureCollection",
  "features": [
    {
      "type": "Feature",
      "properties": {
        "norad_id": 40938,
        "name": "BEIDOU-3S IGSO-2S (C56)",
        "group": "gnss",
        "lat": 38.948210982092895,
        "lon": 37.213127299497344,
        "alt_km": 35669.66398745671,
        "timestamp": "2025-12-27T12:55:14.746655+00:00",
        "meta_object_name": "BEIDOU-3S IGSO-2S (C56)",
        "meta_object_id": "2015-053A",
        "meta_epoch": "2025-12-26T16:11:41.602848",
        "meta_mean_motion": 1.00266904,
        "meta_eccentricity": 0.0060693,
        "meta_inclination": 49.4889,
        "meta_ra_of_asc_node": 260.8421,
        "meta_arg_of_pericenter": 188.2714,
        "meta_mean_anomaly": 344.9526,
        "meta_ephemeris_type": 0,
        "meta_classification_type": "U",
        "meta_norad_cat_id": 40938,
        "meta_element_set_no": 999,
        "meta_rev_at_epoch": 3762,
        "meta_bstar": 0,
        "meta_mean_motion_dot": -1.24e-06,
        "meta_mean_motion_ddot": 0,
        "tle_line1": "1 40938U 15053A   25360.67478707 -.00000124  00000+0  00000+0 0  9996",
        "tle_line2": "2 40938  49.4889 260.8421 0060693 188.2714 344.9526  1.00266904 37625"
      },
      "geometry": {
        "type": "Point",
        "coordinates": [
          37.213127299497344,
          38.948210982092895
        ]
      }
    },
    {
      "type": "Feature",
      "properties": {
        "norad_id": 41019,
        "name": "GPS BIIF-11 (PRN 10)",
        "group": "gnss",
        "lat": -10.923290902552273,
        "lon": -135.3113314108095,
        "alt_km": 19947.31805291148,
        "timestamp": "2025-12-27T12:55:14.746666+00:00",
        "meta_object_name": "GPS BIIF-11 (PRN 10)",
        "meta_object_id": "2015-062A",
        "meta_epoch": "2025-12-26T06:30:53.631648",
        "meta_mean_motion": 2.00567029,
        "meta_eccentricity": 0.0111129,
        "meta_inclination": 56.842,
        "meta_ra_of_asc_node": 37.479,
        "meta_arg_of_pericenter": 230.2895,
        "meta_mean_anomaly": 128.7854,
        "meta_ephemeris_type": 0,
        "meta_classification_type": "U",
        "meta_norad_cat_id": 41019,
        "meta_element_set_no": 999,
        "meta_rev_at_epoch": 7436,
        "meta_bstar": 0,
        "meta_mean_motion_dot": -4.9e-07,
        "meta_mean_motion_ddot": 0,
        "tle_line1": "1 41019U 15062A   25360.27145407 -.00000049  00000+0  00000+0 0  9997",
        "tle_line2": "2 41019  56.8420  37.4790 0111129 230.2895 128.7854  2.00567029 74362"
      },
      "geometry": {
        "type": "Point",
        "coordinates": [
          -135.3113314108095,
          -10.923290902552273
        ]
      }
    },
    {
      "type": "Feature",
      "properties": {
        "norad_id": 41028,
        "name": "GSAT-15 (GAGAN/PRN 139)",
        "group": "gnss",
        "lat": 0.012103627772332107,
        "lon": 23.588679462011175,
        "alt_km": 35794.751641996576,
        "timestamp": "2025-12-27T12:55:14.746678+00:00",
        "meta_object_name": "GSAT-15 (GAGAN/PRN 139)",
        "meta_object_id": "2015-065A",
        "meta_epoch": "2025-12-27T06:35:42.130752",
        "meta_mean_motion": 1.00268015,
        "meta_eccentricity": 0.00025551,
        "meta_inclination": 0.0154,
        "meta_ra_of_asc_node": 0.794,
        "meta_arg_of_pericenter": 247.9825,
        "meta_mean_anomaly": 39.6566,
        "meta_ephemeris_type": 0,
        "meta_classification_type": "U",
        "meta_norad_cat_id": 41028,
        "meta_element_set_no": 999,
        "meta_rev_at_epoch": 3707,
        "meta_bstar": 0,
        "meta_mean_motion_dot": 0,
        "meta_mean_motion_ddot": 0,
        "tle_line1": "1 41028U 15065A   25361.27479318  .00000000  00000+0  00000+0 0  9998",
        "tle_line2": "2 41028   0.0154   0.7940 0002555 247.9825  39.6566  1.00268015 37076"
      },
      "geometry": {
        "type": "Point",
        "coordinates": [
          23.588679462011175,
          0.012103627772332107
        ]
      }
    },
    {
      "type": "Feature",
      "properties": {
        "norad_id": 41174,
        "name": "GSAT0209 (GALILEO 12)",
        "group": "gnss",
        "lat": -36.642055824014605,
        "lon": -43.5853875750186,
        "alt_km": 23229.909632715084,
        "timestamp": "2025-12-27T12:55:14.746692+00:00",
        "meta_object_name": "GSAT0209 (GALILEO 12)",
        "meta_object_id": "2015-079A",
        "meta_epoch": "2025-12-27T04:04:26.723136",
        "meta_mean_motion": 1.70474435,
        "meta_eccentricity": 0.00026732,
        "meta_inclination": 55.7206,
        "meta_ra_of_asc_node": 105.9849,
        "meta_arg_of_pericenter": 340.8041,
        "meta_mean_anomaly": 19.1801,
        "meta_ephemeris_type": 0,
        "meta_classification_type": "U",
        "meta_norad_cat_id": 41174,
        "meta_element_set_no": 999,
        "meta_rev_at_epoch": 6184,
        "meta_bstar": 0,
        "meta_mean_motion_dot": 1.5e-07,
        "meta_mean_motion_ddot": 0,
        "tle_line1": "1 41174U 15079A   25361.16975374  .00000015  00000+0  00000+0 0  9992",
        "tle_line2": "2 41174  55.7206 105.9849 0002673 340.8041  19.1801  1.70474435 61842"
      },
      "geometry": {
        "type": "Point",
        "coordinates": [
          -43.5853875750186,
          -36.642055824014605
        ]
      }
    },
    {
      "type": "Feature",
      "properties": {
        "norad_id": 41175,
        "name": "GSAT0208 (GALILEO 11)",
        "group": "gnss",
        "lat": 55.720967386494586,
        "lon": -162.00468423951565,
        "alt_km": 23217.91654959711,
        "timestamp": "2025-12-27T12:55:14.746705+00:00",
        "meta_object_name": "GSAT0208 (GALILEO 11)",
        "meta_object_id": "2015-079B",
        "meta_epoch": "2025-12-26T19:16:48.817056",
        "meta_mean_motion": 1.70474041,
        "meta_eccentricity": 0.00020772,
        "meta_inclination": 55.719,
        "meta_ra_of_asc_node": 105.9921,
        "meta_arg_of_pericenter": 340.7165,
        "meta_mean_anomaly": 19.2705,
        "meta_ephemeris_type": 0,
        "meta_classification_type": "U",
        "meta_norad_cat_id": 41175,
        "meta_element_set_no": 999,
        "meta_rev_at_epoch": 6225,
        "meta_bstar": 0,
        "meta_mean_motion_dot": 1.7e-07,
        "meta_mean_motion_ddot": 0,
        "tle_line1": "1 41175U 15079B   25360.80334279  .00000017  00000+0  00000+0 0  9998",
        "tle_line2": "2 41175  55.7190 105.9921 0002077 340.7165  19.2705  1.70474041 62253"
      },
      "geometry": {
        "type": "Point",
        "coordinates": [
          -162.00468423951565,
          55.720967386494586
        ]
      }
    },
    {
      "type": "Feature",
      "properties": {
        "norad_id": 41241,
        "name": "IRNSS-1E",
        "group": "gnss",
        "lat": -10.871870627730285,
        "lon": 44.97668363242184,
        "alt_km": 35862.827797447106,
        "timestamp": "2025-12-27T12:55:14.746716+00:00",
        "meta_object_name": "IRNSS-1E",
        "meta_object_id": "2016-003A",
        "meta_epoch": "2025-12-26T15:54:48.991392",
        "meta_mean_motion": 1.00277951,
        "meta_eccentricity": 0.00209932,
        "meta_inclination": 32.8574,
        "meta_ra_of_asc_node": 62.2508,
        "meta_arg_of_pericenter": 189.6283,
        "meta_mean_anomaly": 193.9579,
        "meta_ephemeris_type": 0,
        "meta_classification_type": "U",
        "meta_norad_cat_id": 41241,
        "meta_element_set_no": 999,
        "meta_rev_at_epoch": 3635,
        "meta_bstar": 0,
        "meta_mean_motion_dot": -2.94e-06,
        "meta_mean_motion_ddot": 0,
        "tle_line1": "1 41241U 16003A   25360.66306703 -.00000294  00000+0  00000+0 0  9993",
        "tle_line2": "2 41241  32.8574  62.2508 0020993 189.6283 193.9579  1.00277951 36358"
      },
      "geometry": {
        "type": "Point",
        "coordinates": [
          44.97668363242184,
          -10.871870627730285
        ]
      }
    },
    {
      "type": "Feature",
      "properties": {
        "norad_id": 41328,
        "name": "GPS BIIF-12 (PRN 32)",
        "group": "gnss",
        "lat": 37.02213759702825,
        "lon": -115.03539641757682,
        "alt_km": 20263.952598688702,
        "timestamp": "2025-12-27T12:55:14.746728+00:00",
        "meta_object_name": "GPS BIIF-12 (PRN 32)",
        "meta_object_id": "2016-007A",
        "meta_epoch": "2025-12-25T20:32:16.174464",
        "meta_mean_motion": 2.00559967,
        "meta_eccentricity": 0.00928247,
        "meta_inclination": 55.4133,
        "meta_ra_of_asc_node": 96.3364,
        "meta_arg_of_pericenter": 243.9276,
        "meta_mean_anomaly": 115.1304,
        "meta_ephemeris_type": 0,
        "meta_classification_type": "U",
        "meta_norad_cat_id": 41328,
        "meta_element_set_no": 999,
        "meta_rev_at_epoch": 7236,
        "meta_bstar": 0,
        "meta_mean_motion_dot": 1.1e-07,
        "meta_mean_motion_ddot": 0,
        "tle_line1": "1 41328U 16007A   25359.85574276  .00000011  00000+0  00000+0 0  9990",
        "tle_line2": "2 41328  55.4133  96.3364 0092824 243.9276 115.1304  2.00559967 72366"
      },
      "geometry": {
        "type": "Point",
        "coordinates": [
          -115.03539641757682,
          37.02213759702825
        ]
      }
    }
  ]
}